[{"OBJECT_NAME":"STARLINK-32341","OBJECT_ID":"2024-191U","EPOCH":"2026-03-05T08:39:32.415840","MEAN_MOTION":15.27562371,"ECCENTRICITY":7.82e-5,"INCLINATION":43.0008,"RA_OF_ASC_NODE":179.0132,"ARG_OF_PERICENTER":245.9537,"MEAN_ANOMALY":114.1232,"EPHEMERIS_TYPE":0,"CLASSIFICATION_TYPE":"U","NORAD_CAT_ID":61639,"ELEMENT_SET_NO":999,"REV_AT_EPOCH":7687,"BSTAR":-8.4365e-5,"MEAN_MOTION_DOT":-2.581e-5,"MEAN_MOTION_DDOT":0},{"OBJECT_NAME":"STARLINK-32339","OBJECT_ID":"2024-191V","EPOCH":"2026-03-05T15:44:02.899968","MEAN_MOTION":15.27581711,"ECCENTRICITY":0.000129,"INCLINATION":43.0009,"RA_OF_ASC_NODE":176.92,"ARG_OF_PERICENTER":248.8817,"MEAN_ANOMALY":111.1896,"EPHEMERIS_TYPE":0,"CLASSIFICATION_TYPE":"U","NORAD_CAT_ID":61640,"ELEMENT_SET_NO":999,"REV_AT_EPOCH":7691,"BSTAR":3.8143e-5,"MEAN_MOTION_DOT":7.88e-6,"MEAN_MOTION_DDOT":0},{"OBJECT_NAME":"STARLINK-32327","OBJECT_ID":"2024-191W","EPOCH":"2026-03-05T08:13:38.299296","MEAN_MOTION":15.27560023,"ECCENTRICITY":8.42e-5,"INCLINATION":42.9994,"RA_OF_ASC_NODE":178.8737,"ARG_OF_PERICENTER":206.6932,"MEAN_ANOMALY":153.3876,"EPHEMERIS_TYPE":0,"CLASSIFICATION_TYPE":"U","NORAD_CAT_ID":61641,"ELEMENT_SET_NO":999,"REV_AT_EPOCH":7687,"BSTAR":-0.0001167,"MEAN_MOTION_DOT":-3.47e-5,"MEAN_MOTION_DDOT":0},{"OBJECT_NAME":"STARLINK-32264","OBJECT_ID":"2024-191X","EPOCH":"2026-03-05T20:00:00.999360","MEAN_MOTION":15.30872292,"ECCENTRICITY":0.0003721,"INCLINATION":42.9993,"RA_OF_ASC_NODE":179.5473,"ARG_OF_PERICENTER":6.4582,"MEAN_ANOMALY":185.628,"EPHEMERIS_TYPE":0,"CLASSIFICATION_TYPE":"U","NORAD_CAT_ID":61642,"ELEMENT_SET_NO":999,"REV_AT_EPOCH":579,"BSTAR":0.0049194,"MEAN_MOTION_DOT":0.00152684,"MEAN_MOTION_DDOT":0},{"OBJECT_NAME":"STARLINK-32337","OBJECT_ID":"2024-191Y","EPOCH":"2026-03-05T14:41:21.836256","MEAN_MOTION":15.27562765,"ECCENTRICITY":0.0001534,"INCLINATION":42.9989,"RA_OF_ASC_NODE":177.4555,"ARG_OF_PERICENTER":303.8563,"MEAN_ANOMALY":56.2143,"EPHEMERIS_TYPE":0,"CLASSIFICATION_TYPE":"U","NORAD_CAT_ID":61643,"ELEMENT_SET_NO":999,"REV_AT_EPOCH":7767,"BSTAR":-3.5842e-5,"MEAN_MOTION_DOT":-1.248e-5,"MEAN_MOTION_DDOT":0},{"OBJECT_NAME":"STARLINK-32238","OBJECT_ID":"2024-193A","EPOCH":"2026-03-05T12:10:52.629312","MEAN_MOTION":15.30191483,"ECCENTRICITY":9.78e-5,"INCLINATION":53.1609,"RA_OF_ASC_NODE":110.6249,"ARG_OF_PERICENTER":95.2506,"MEAN_ANOMALY":264.8606,"EPHEMERIS_TYPE":0,"CLASSIFICATION_TYPE":"U","NORAD_CAT_ID":61661,"ELEMENT_SET_NO":999,"REV_AT_EPOCH":7588,"BSTAR":-6.1366e-5,"MEAN_MOTION_DOT":-2.175e-5,"MEAN_MOTION_DDOT":0},{"OBJECT_NAME":"STARLINK-32310","OBJECT_ID":"2024-193B","EPOCH":"2026-03-05T10:07:56.217216","MEAN_MOTION":15.30198056,"ECCENTRICITY":0.0001038,"INCLINATION":53.1603,"RA_OF_ASC_NODE":110.8014,"ARG_OF_PERICENTER":123.0204,"MEAN_ANOMALY":237.0896,"EPHEMERIS_TYPE":0,"CLASSIFICATION_TYPE":"U","NORAD_CAT_ID":61662,"ELEMENT_SET_NO":999,"REV_AT_EPOCH":7587,"BSTAR":-3.4412e-5,"MEAN_MOTION_DOT":-1.378e-5,"MEAN_MOTION_DDOT":0},{"OBJECT_NAME":"STARLINK-32308","OBJECT_ID":"2024-193C","EPOCH":"2026-03-05T06:23:21.529824","MEAN_MOTION":15.30190277,"ECCENTRICITY":0.0001351,"INCLINATION":53.1596,"RA_OF_ASC_NODE":111.2478,"ARG_OF_PERICENTER":84.3335,"MEAN_ANOMALY":275.782,"EPHEMERIS_TYPE":0,"CLASSIFICATION_TYPE":"U","NORAD_CAT_ID":61663,"ELEMENT_SET_NO":999,"REV_AT_EPOCH":7585,"BSTAR":0.00024737,"MEAN_MOTION_DOT":6.972e-5,"MEAN_MOTION_DDOT":0},{"OBJECT_NAME":"STARLINK-32301","OBJECT_ID":"2024-193D","EPOCH":"2026-03-05T10:47:27.015936","MEAN_MOTION":15.30193927,"ECCENTRICITY":0.0001132,"INCLINATION":53.1638,"RA_OF_ASC_NODE":110.9766,"ARG_OF_PERICENTER":78.2415,"MEAN_ANOMALY":281.8713,"EPHEMERIS_TYPE":0,"CLASSIFICATION_TYPE":"U","NORAD_CAT_ID":61664,"ELEMENT_SET_NO":999,"REV_AT_EPOCH":7587,"BSTAR":-3.7041e-5,"MEAN_MOTION_DOT":-1.456e-5,"MEAN_MOTION_DDOT":0},{"OBJECT_NAME":"STARLINK-32439","OBJECT_ID":"2024-193E","EPOCH":"2026-03-05T12:29:01.849056","MEAN_MOTION":15.30233408,"ECCENTRICITY":5.54e-5,"INCLINATION":53.1599,"RA_OF_ASC_NODE":110.6955,"ARG_OF_PERICENTER":133.448,"MEAN_ANOMALY":226.6567,"EPHEMERIS_TYPE":0,"CLASSIFICATION_TYPE":"U","NORAD_CAT_ID":61665,"ELEMENT_SET_NO":999,"REV_AT_EPOCH":7588,"BSTAR":0.00019721,"MEAN_MOTION_DOT":5.492e-5,"MEAN_MOTION_DDOT":0},{"OBJECT_NAME":"STARLINK-32428","OBJECT_ID":"2024-193F","EPOCH":"2026-03-05T12:59:19.742208","MEAN_MOTION":15.30189171,"ECCENTRICITY":0.0001035,"INCLINATION":53.1587,"RA_OF_ASC_NODE":110.1241,"ARG_OF_PERICENTER":57.0524,"MEAN_ANOMALY":303.0576,"EPHEMERIS_TYPE":0,"CLASSIFICATION_TYPE":"U","NORAD_CAT_ID":61666,"ELEMENT_SET_NO":999,"REV_AT_EPOCH":7589,"BSTAR":2.7584e-5,"MEAN_MOTION_DOT":4.58e-6,"MEAN_MOTION_DDOT":0},{"OBJECT_NAME":"STARLINK-32414","OBJECT_ID":"2024-193G","EPOCH":"2026-03-05T12:12:23.444352","MEAN_MOTION":15.30187336,"ECCENTRICITY":0.0001266,"INCLINATION":53.1613,"RA_OF_ASC_NODE":110.6321,"ARG_OF_PERICENTER":92.6221,"MEAN_ANOMALY":267.4924,"EPHEMERIS_TYPE":0,"CLASSIFICATION_TYPE":"U","NORAD_CAT_ID":61667,"ELEMENT_SET_NO":999,"REV_AT_EPOCH":7588,"BSTAR":4.309e-7,"MEAN_MOTION_DOT":-3.46e-6,"MEAN_MOTION_DDOT":0},{"OBJECT_NAME":"STARLINK-32441","OBJECT_ID":"2024-193H","EPOCH":"2026-03-05T12:00:13.906080","MEAN_MOTION":15.30186953,"ECCENTRICITY":9.97e-5,"INCLINATION":53.1605,"RA_OF_ASC_NODE":110.5763,"ARG_OF_PERICENTER":91.7361,"MEAN_ANOMALY":268.3754,"EPHEMERIS_TYPE":0,"CLASSIFICATION_TYPE":"U","NORAD_CAT_ID":61668,"ELEMENT_SET_NO":999,"REV_AT_EPOCH":7588,"BSTAR":-7.8994e-7,"MEAN_MOTION_DOT":-3.82e-6,"MEAN_MOTION_DDOT":0},{"OBJECT_NAME":"STARLINK-32400","OBJECT_ID":"2024-193J","EPOCH":"2026-03-04T10:28:47.112960","MEAN_MOTION":15.3018275,"ECCENTRICITY":9.514e-5,"INCLINATION":53.1587,"RA_OF_ASC_NODE":113.1891,"ARG_OF_PERICENTER":73.8761,"MEAN_ANOMALY":286.2344,"EPHEMERIS_TYPE":0,"CLASSIFICATION_TYPE":"U","NORAD_CAT_ID":61669,"ELEMENT_SET_NO":999,"REV_AT_EPOCH":7575,"BSTAR":-1.7469215e-5,"MEAN_MOTION_DOT":-8.76e-6,"MEAN_MOTION_DDOT":0},{"OBJECT_NAME":"STARLINK-32449","OBJECT_ID":"2024-193K","EPOCH":"2026-03-05T10:17:03.516288","MEAN_MOTION":15.30189175,"ECCENTRICITY":0.0001017,"INCLINATION":53.1605,"RA_OF_ASC_NODE":110.8408,"ARG_OF_PERICENTER":111.4614,"MEAN_ANOMALY":248.6495,"EPHEMERIS_TYPE":0,"CLASSIFICATION_TYPE":"U","NORAD_CAT_ID":61670,"ELEMENT_SET_NO":999,"REV_AT_EPOCH":7587,"BSTAR":-8.0629e-6,"MEAN_MOTION_DOT":-5.98e-6,"MEAN_MOTION_DDOT":0},{"OBJECT_NAME":"STARLINK-32453","OBJECT_ID":"2024-193L","EPOCH":"2026-03-05T09:58:49.743264","MEAN_MOTION":15.30202692,"ECCENTRICITY":0.0001058,"INCLINATION":53.1599,"RA_OF_ASC_NODE":110.7621,"ARG_OF_PERICENTER":94.8176,"MEAN_ANOMALY":265.2946,"EPHEMERIS_TYPE":0,"CLASSIFICATION_TYPE":"U","NORAD_CAT_ID":61671,"ELEMENT_SET_NO":999,"REV_AT_EPOCH":7587,"BSTAR":-0.00010223,"MEAN_MOTION_DOT":-3.386e-5,"MEAN_MOTION_DDOT":0},{"OBJECT_NAME":"STARLINK-32443","OBJECT_ID":"2024-193M","EPOCH":"2026-03-05T09:55:46.794720","MEAN_MOTION":15.30187244,"ECCENTRICITY":0.0001115,"INCLINATION":53.1573,"RA_OF_ASC_NODE":110.7463,"ARG_OF_PERICENTER":73.1272,"MEAN_ANOMALY":286.9851,"EPHEMERIS_TYPE":0,"CLASSIFICATION_TYPE":"U","NORAD_CAT_ID":61672,"ELEMENT_SET_NO":999,"REV_AT_EPOCH":7587,"BSTAR":2.6413e-5,"MEAN_MOTION_DOT":4.23e-6,"MEAN_MOTION_DDOT":0},{"OBJECT_NAME":"STARLINK-32417","OBJECT_ID":"2024-193N","EPOCH":"2026-03-05T12:57:48.444192","MEAN_MOTION":15.30192142,"ECCENTRICITY":0.0001289,"INCLINATION":53.1604,"RA_OF_ASC_NODE":110.1153,"ARG_OF_PERICENTER":100.4238,"MEAN_ANOMALY":259.6908,"EPHEMERIS_TYPE":0,"CLASSIFICATION_TYPE":"U","NORAD_CAT_ID":61673,"ELEMENT_SET_NO":999,"REV_AT_EPOCH":7589,"BSTAR":4.8029e-5,"MEAN_MOTION_DOT":1.063e-5,"MEAN_MOTION_DDOT":0},{"OBJECT_NAME":"STARLINK-32326","OBJECT_ID":"2024-193P","EPOCH":"2026-03-05T12:54:46.251648","MEAN_MOTION":15.30189102,"ECCENTRICITY":0.0001252,"INCLINATION":53.16,"RA_OF_ASC_NODE":110.1017,"ARG_OF_PERICENTER":91.153,"MEAN_ANOMALY":268.9614,"EPHEMERIS_TYPE":0,"CLASSIFICATION_TYPE":"U","NORAD_CAT_ID":61674,"ELEMENT_SET_NO":999,"REV_AT_EPOCH":7589,"BSTAR":4.5671e-5,"MEAN_MOTION_DOT":9.93e-6,"MEAN_MOTION_DDOT":0},{"OBJECT_NAME":"STARLINK-32294","OBJECT_ID":"2024-193Q","EPOCH":"2026-03-05T03:25:53.591232","MEAN_MOTION":15.30187265,"ECCENTRICITY":0.00012867,"INCLINATION":53.1598,"RA_OF_ASC_NODE":111.8994,"ARG_OF_PERICENTER":89.223,"MEAN_ANOMALY":270.8918,"EPHEMERIS_TYPE":0,"CLASSIFICATION_TYPE":"U","NORAD_CAT_ID":61675,"ELEMENT_SET_NO":999,"REV_AT_EPOCH":7583,"BSTAR":8.525118e-6,"MEAN_MOTION_DOT":-1.07e-6,"MEAN_MOTION_DDOT":0},{"OBJECT_NAME":"STARLINK-32309","OBJECT_ID":"2024-193R","EPOCH":"2026-03-05T03:10:41.675520","MEAN_MOTION":15.3017679,"ECCENTRICITY":0.00011098,"INCLINATION":53.1606,"RA_OF_ASC_NODE":111.8365,"ARG_OF_PERICENTER":75.2267,"MEAN_ANOMALY":284.8856,"EPHEMERIS_TYPE":0,"CLASSIFICATION_TYPE":"U","NORAD_CAT_ID":61676,"ELEMENT_SET_NO":999,"REV_AT_EPOCH":7583,"BSTAR":0.00011570507,"MEAN_MOTION_DOT":3.067e-5,"MEAN_MOTION_DDOT":0},{"OBJECT_NAME":"STARLINK-32323","OBJECT_ID":"2024-193S","EPOCH":"2026-03-05T17:26:16.388448","MEAN_MOTION":15.3020559,"ECCENTRICITY":0.0001437,"INCLINATION":53.1599,"RA_OF_ASC_NODE":109.1386,"ARG_OF_PERICENTER":131.4973,"MEAN_ANOMALY":228.6151,"EPHEMERIS_TYPE":0,"CLASSIFICATION_TYPE":"U","NORAD_CAT_ID":61677,"ELEMENT_SET_NO":999,"REV_AT_EPOCH":7592,"BSTAR":0.00012365,"MEAN_MOTION_DOT":3.305e-5,"MEAN_MOTION_DDOT":0},{"OBJECT_NAME":"STARLINK-32363","OBJECT_ID":"2024-193T","EPOCH":"2026-03-05T06:21:50.771808","MEAN_MOTION":15.30188415,"ECCENTRICITY":0.0001113,"INCLINATION":53.1602,"RA_OF_ASC_NODE":111.2434,"ARG_OF_PERICENTER":79.7796,"MEAN_ANOMALY":280.333,"EPHEMERIS_TYPE":0,"CLASSIFICATION_TYPE":"U","NORAD_CAT_ID":61678,"ELEMENT_SET_NO":999,"REV_AT_EPOCH":7585,"BSTAR":9.2468e-7,"MEAN_MOTION_DOT":-3.32e-6,"MEAN_MOTION_DDOT":0}]
